STARLINK-6299
1 57358U 23099AG  26090.83335647  .02042149  00000+0  93281-1 0  9992
2 57358  42.9999 115.3129 0001827 265.1089   7.1016 15.16746733  5725
